*******************************************************************************
Ephemeris / WWW_USER Mon Mar 26 21:14:08 2018 Pasadena, USA      / Horizons    
*******************************************************************************
Target body name: Nix (902)                       {source: plu055l_merged}
Center body name: Pluto Barycenter (9)            {source: plu055l_merged}
Center-site name: BODY CENTER
*******************************************************************************
Start time      : A.D. 2000-Jan-01 00:00:00.0000 TDB
Stop  time      : A.D. 2010-Jan-01 00:00:00.0000 TDB
Step-size       : 7200 minutes
*******************************************************************************
Center geodetic : 0.00000000,0.00000000,0.0000000 {E-lon(deg),Lat(deg),Alt(km)}
Center cylindric: 0.00000000,0.00000000,0.0000000 {E-lon(deg),Dxy(km),Dz(km)}
Center radii    : (undefined)                                                  
Output units    : AU-D                                                         
Output type     : GEOMETRIC cartesian states
Output format   : 2 (position and velocity)
Reference frame : ICRF/J2000.0                                                 
Coordinate systm: Ecliptic and Mean Equinox of Reference Epoch                 
*******************************************************************************
JDTDB
   X     Y     Z
   VX    VY    VZ
*******************************************************************************
$$SOE
2451544.500000000 = A.D. 2000-Jan-01 00:00:00.0000 TDB 
  -4.605277433521209E-05  1.328322509453211E-04  2.931973001357960E-04
   5.927755846731763E-05  5.465392201585514E-05 -1.576140473153038E-05
2451549.500000000 = A.D. 2000-Jan-06 00:00:00.0000 TDB 
   2.098843762242420E-04  2.466643139276565E-04  2.938211371909371E-05
   2.829930040842096E-05 -1.636859085674445E-05 -7.557783417273283E-05
2451554.500000000 = A.D. 2000-Jan-11 00:00:00.0000 TDB 
   1.712757078281204E-04  1.426237485937357E-05 -2.757787712776815E-04
  -4.232679832705105E-05 -6.449808071145491E-05 -2.957173520654902E-05
2451559.500000000 = A.D. 2000-Jan-16 00:00:00.0000 TDB 
  -1.064930059466489E-04 -2.377226971604682E-04 -1.953213792627125E-04
  -5.433886122027470E-05 -2.314566374592286E-05  5.764981745523078E-05
2451564.500000000 = A.D. 2000-Jan-21 00:00:00.0000 TDB 
  -2.367849244123759E-04 -1.591818552636634E-04  1.577360969657646E-04
   8.601860717953519E-06  4.985689812486033E-05  6.490820466118189E-05
2451569.500000000 = A.D. 2000-Jan-26 00:00:00.0000 TDB 
  -3.728794388246877E-05  1.408037797681279E-04  2.906785527426743E-04
   5.965159487735152E-05  5.356209602862320E-05 -1.816517774853743E-05
2451574.500000000 = A.D. 2000-Jan-31 00:00:00.0000 TDB 
   2.144999869258237E-04  2.445905803425778E-04  1.800029641070137E-05
   2.648336911534341E-05 -1.806538530068239E-05 -7.512873575094039E-05
2451579.500000000 = A.D. 2000-Feb-05 00:00:00.0000 TDB 
   1.652954080220794E-04  5.106117100408137E-06 -2.800188650759755E-04
  -4.376681015788699E-05 -6.432144293188217E-05 -2.677435988070252E-05
2451584.500000000 = A.D. 2000-Feb-10 00:00:00.0000 TDB 
  -1.140993890420264E-04 -2.409853124704524E-04 -1.872737469694265E-04
  -5.307204072321492E-05 -2.046641408226790E-05  5.973386601466953E-05
2451589.500000000 = A.D. 2000-Feb-15 00:00:00.0000 TDB 
  -2.349632953746387E-04 -1.517148360557730E-04  1.665272090132911E-04
   1.124010926112104E-05  5.177478427394814E-05  6.337814351343921E-05
2451594.500000000 = A.D. 2000-Feb-20 00:00:00.0000 TDB 
  -2.860085872488990E-05  1.483430328849393E-04  2.876017449018854E-04
   6.018231782814896E-05  5.246539194770563E-05 -2.084929688148440E-05
2451599.500000000 = A.D. 2000-Feb-25 00:00:00.0000 TDB 
   2.182954362103015E-04  2.414351816765047E-04  6.317224636052316E-06
   2.524403836449731E-05 -1.964738838001115E-05 -7.550075695842260E-05
2451604.500000000 = A.D. 2000-Mar-01 00:00:00.0000 TDB 
   1.588717248388195E-04 -4.323394600708938E-06 -2.839218966573675E-04
  -4.502507678347386E-05 -6.417356444005821E-05 -2.434033897498070E-05
2451609.500000000 = A.D. 2000-Mar-06 00:00:00.0000 TDB 
  -1.220091370198251E-04 -2.443886054124547E-04 -1.789226434776547E-04
  -5.147887349115226E-05 -1.786884702392257E-05  6.111760147588317E-05
2451614.500000000 = A.D. 2000-Mar-11 00:00:00.0000 TDB 
  -2.332462844079616E-04 -1.443590797535235E-04  1.753201165786975E-04
   1.372476895302114E-05  5.324158996742785E-05  6.139273342023707E-05
2451619.500000000 = A.D. 2000-Mar-16 00:00:00.0000 TDB 
  -2.014514488596696E-05  1.555399651696551E-04  2.843785394100945E-04
   6.062758714133858E-05  5.103613857730057E-05 -2.391667346660204E-05
2451624.500000000 = A.D. 2000-Mar-21 00:00:00.0000 TDB 
   2.212398186732328E-04  2.377333964178502E-04 -4.755126429774655E-06
   2.337121493951473E-05 -2.211174998598402E-05 -7.618155206323839E-05
2451629.500000000 = A.D. 2000-Mar-26 00:00:00.0000 TDB 
   1.520473386217215E-04 -1.377549711420356E-05 -2.871610120166932E-04
  -4.639602456166223E-05 -6.421650729013797E-05 -2.201623595893427E-05
2451634.500000000 = A.D. 2000-Mar-31 00:00:00.0000 TDB 
  -1.301150719957542E-04 -2.474024693183328E-04 -1.696066700634485E-04
  -5.030267910214950E-05 -1.609366328428146E-05  6.191024470218468E-05
2451639.500000000 = A.D. 2000-Apr-05 00:00:00.0000 TDB 
  -2.313417981402786E-04 -1.366930483844840E-04  1.842812544484546E-04
   1.583711409926759E-05  5.432795980608311E-05  5.944696023790048E-05
2451644.500000000 = A.D. 2000-Apr-10 00:00:00.0000 TDB 
  -1.167530968649808E-05  1.628052669894152E-04  2.812398539230977E-04
   6.065727791485737E-05  4.912493692714504E-05 -2.703117512862272E-05
2451649.500000000 = A.D. 2000-Apr-15 00:00:00.0000 TDB 
   2.240180396536415E-04  2.341651416507079E-04 -1.532116936367873E-05
   2.092546139437954E-05 -2.481443066868693E-05 -7.624490028620452E-05
2451654.500000000 = A.D. 2000-Apr-20 00:00:00.0000 TDB 
   1.451629063379075E-04 -2.292397306075268E-05 -2.898073978695533E-04
  -4.798363333592159E-05 -6.432492724550865E-05 -1.941994725106462E-05
2451659.500000000 = A.D. 2000-Apr-25 00:00:00.0000 TDB 
  -1.375987479600113E-04 -2.493360400087898E-04 -1.596463374422780E-04
  -4.973072864700207E-05 -1.452297635026109E-05  6.342809709535432E-05
2451664.500000000 = A.D. 2000-Apr-30 00:00:00.0000 TDB 
  -2.289608750942701E-04 -1.286276988531712E-04  1.930495538710172E-04
   1.770929105461736E-05  5.533267373646260E-05  5.778934722503698E-05
2451669.500000000 = A.D. 2000-May-05 00:00:00.0000 TDB 
  -2.820730473258532E-06  1.703460530103026E-04  2.778714452063499E-04
   6.018856984892557E-05  4.710595453442279E-05 -2.944909448377345E-05
2451674.500000000 = A.D. 2000-May-10 00:00:00.0000 TDB 
   2.268642824196933E-04  2.306301496636479E-04 -2.595058965892372E-05
   1.848625406247435E-05 -2.718150287316051E-05 -7.578163261257583E-05
2451679.500000000 = A.D. 2000-May-15 00:00:00.0000 TDB 
   1.383119125840772E-04 -3.191045471788139E-05 -2.922511650859410E-04
  -4.963429795301916E-05 -6.418770154685991E-05 -1.632060316911411E-05
2451684.500000000 = A.D. 2000-May-20 00:00:00.0000 TDB 
  -1.444143122583299E-04 -2.506314097441690E-04 -1.498298363440172E-04
  -4.868854946591109E-05 -1.209557175336666E-05  6.549828566641323E-05
2451689.500000000 = A.D. 2000-May-25 00:00:00.0000 TDB 
  -2.260799599332119E-04 -1.202968359626259E-04  2.013698580733823E-04
   1.966590702729695E-05  5.651189392289006E-05  5.626442680896061E-05
2451694.500000000 = A.D. 2000-May-30 00:00:00.0000 TDB 
   6.496312209694562E-06  1.777563830468607E-04  2.734880575702784E-04
   5.992541272344282E-05  4.582738018623337E-05 -3.103852610542729E-05
2451699.500000000 = A.D. 2000-Jun-04 00:00:00.0000 TDB 
   2.295829857061758E-04  2.267983306350838E-04 -3.683102702481542E-05
   1.635185626791093E-05 -2.913973850481848E-05 -7.519456248935265E-05
2451704.500000000 = A.D. 2000-Jun-09 00:00:00.0000 TDB 
   1.314457044211139E-04 -4.098205865020929E-05 -2.948033916424590E-04
  -5.093583993837916E-05 -6.353488747026366E-05 -1.300431039503341E-05
2451709.500000000 = A.D. 2000-Jun-14 00:00:00.0000 TDB 
  -1.510161198041358E-04 -2.518878456137054E-04 -1.403254524859082E-04
  -4.707880235276517E-05 -9.293901829649707E-06  6.717819917784333E-05
2451714.500000000 = A.D. 2000-Jun-19 00:00:00.0000 TDB 
  -2.229159685979996E-04 -1.119725205392898E-04  2.091843449410768E-04
   2.191502053193417E-05  5.786738363737697E-05  5.451240216989632E-05
2451719.500000000 = A.D. 2000-Jun-24 00:00:00.0000 TDB 
   1.559722297425081E-05  1.842983563576760E-04  2.680911672452489E-04
   6.032121070962277E-05  4.484613326567454E-05 -3.329960128467621E-05
2451724.500000000 = A.D. 2000-Jun-29 00:00:00.0000 TDB 
   2.318753130532332E-04  2.224916946127926E-04 -4.772670251881337E-05
   1.446659176905291E-05 -3.094140498243047E-05 -7.479100920698341E-05
2451729.500000000 = A.D. 2000-Jul-04 00:00:00.0000 TDB 
   1.241803297658347E-04 -5.041277259979109E-05 -2.972344192468843E-04
  -5.158276568973301E-05 -6.257317641855767E-05 -1.033486614820240E-05
2451734.500000000 = A.D. 2000-Jul-09 00:00:00.0000 TDB 
  -1.576512451459194E-04 -2.531433693390064E-04 -1.307641451889726E-04
  -4.534816994214576E-05 -6.704153649677083E-06  6.830745195362560E-05
2451739.500000000 = A.D. 2000-Jul-14 00:00:00.0000 TDB 
  -2.197241543372899E-04 -1.037511068048789E-04  2.167832861014119E-04
   2.437250872021549E-05  5.912456085888646E-05  5.224009567112598E-05
2451744.500000000 = A.D. 2000-Jul-19 00:00:00.0000 TDB 
   2.421729026837309E-05  1.902027009723838E-04  2.625117189598540E-04
   6.049439723093764E-05  4.313490465717311E-05 -3.634162299677767E-05
2451749.500000000 = A.D. 2000-Jul-24 00:00:00.0000 TDB 
   2.336560569032202E-04  2.176840417834733E-04 -5.853139004306681E-05
   1.250028455240319E-05 -3.294495685358725E-05 -7.456961990715559E-05
